[
    {
        "Altitude(m)": 612502.24625123,
        "Argument of Periapsis(deg)": 0.0,
        "Eccentricity": 0.0,
        "Inclination(deg)": 60.0,
        "Latitude(deg)": -28.13614024022154,
        "Longitude(deg)": -47.851719884851484,
        "Mean Anomaly(deg)": -32.727300000000035,
        "RAAN(deg)": 70.0,
        "Satellite Name": "Test1 328",
        "Satellite Number": 328,
        "Semi-Major Axis(m)": 6980739.136638005,
        "Time(s)": 0
    },
    {
        "Altitude(m)": 612308.6934025203,
        "Argument of Periapsis(deg)": 0.00010418945913296404,
        "Eccentricity": 0.0,
        "Inclination(deg)": 60.0,
        "Latitude(deg)": -27.62319519918591,
        "Longitude(deg)": -47.4982458603172,
        "Mean Anomaly(deg)": -32.107193854538146,
        "RAAN(deg)": 69.99957995086027,
        "Satellite Name": "Test1 328",
        "Satellite Number": 328,
        "Semi-Major Axis(m)": 6980739.136638005,
        "Time(s)": 10
    }
]